METHANESAT              
1 59101U 24043D   26042.93217832  .00003333  00000+0  29164-3 0  9994
2 59101  97.8244 173.5675 0011547  70.2388 290.0078 14.97376077105904
GOSAT-GW (IBUKI GW)     
1 64694U 25141A   26043.28186595  .00001117  00000+0  20526-3 0  9998
2 64694  98.0480 342.6976 0001477  82.6379 277.4994 14.67558876 33523
GHGSAT-C1               
1 46278U 20061G   26043.25886601  .00035771  00000+0  39836-3 0  9991
2 46278  97.2213 125.0509 0002442 125.0723 235.0765 15.62766986303917
GHGSAT-C12              
1 64529U 25135B   26043.28666884  .00004854  00000+0  23312-3 0  9999
2 64529  97.4605 159.3984 0003875 240.6905 119.3943 15.19306433 35853
GHGSAT-C13              
1 64548U 25135W   26043.28249965  .00004227  00000+0  19930-3 0  9992
2 64548  97.4631 159.7818 0001783 136.4141 223.7235 15.20022510 35872
GHGSAT-C2               
1 47509U 21006DA  26043.08485781  .00007877  00000+0  22605-3 0  9996
2 47509  97.2352  92.4988 0003644 252.7577 107.3269 15.36121777280634
GHGSAT-C3               
1 52737U 22057F   26043.27994280  .00009663  00000+0  31066-3 0  9998
2 52737  97.6380 184.5736 0005961 195.2349 164.8714 15.32465891206392
GHGSAT-C4               
1 52746U 22057Q   26043.23410184  .00009018  00000+0  29020-3 0  9991
2 52746  97.6306 183.4846 0006450 181.1253 178.9975 15.32453756206394
GHGSAT-C5               
1 52744U 22057N   26043.31708818  .00009345  00000+0  30066-3 0  9997
2 52744  97.6470 186.0400 0007021 193.0614 167.0447 15.32444336206406
GHGSAT-C6               
1 56204U 23054AC  26043.22555073  .00017609  00000+0  32631-3 0  9995
2 56204  97.3147 311.1871 0009669 126.8532 233.3607 15.48998360159089
GHGSAT-C7               
1 56209U 23054AH  26043.21926407  .00013472  00000+0  26855-3 0  9997
2 56209  97.3104 310.2051 0009808 122.3610 237.8591 15.46949465159058
GHGSAT-C8               
1 56186U 23054J   26043.26195148  .00017121  00000+0  31725-3 0  9993
2 56186  97.3108 310.6243 0006992 138.3491 221.8294 15.49031699159077
SENTINEL-5P             
1 42969U 17064A   26043.23011309  .00000094  00000+0  65464-4 0  9993
2 42969  98.7849 346.2915 0001197  82.2509 277.8803 14.19542719431838
ENMAP                   
1 52159U 22033C   26043.27369108  .00000759  00000+0  12042-3 0  9995
2 52159  97.9773 127.3023 0001274  72.0822 288.0526 14.74937032208246
PRISMA                  
1 44072U 19015A   26043.23865993  .00001334  00000+0  16804-3 0  9995
2 44072  97.8763 119.8141 0001132  82.2159 277.9183 14.83646319373520
SENTINEL-2A             
1 40697U 15028A   26043.31265387  .00000065  00000+0  41514-4 0  9991
2 40697  98.5703 119.9837 0001142  95.2860 264.8453 14.30810480555877
SENTINEL-2B             
1 42063U 17013A   26043.31233392  .00000145  00000+0  71964-4 0  9998
2 42063  98.5703 119.8683 0001109  90.7975 269.3335 14.30810072466781
SENTINEL-2C             
1 60989U 24157A   26043.20753085  .00000144  00000+0  71767-4 0  9996
2 60989  98.5667 119.7904 0000998  80.6190 279.5105 14.30815538 75117
LANDSAT 8               
1 39084U 13008A   26043.25276127  .00000440  00000+0  10760-3 0  9997
2 39084  98.1971 115.3885 0001343  92.1461 267.9891 14.57106257679705
LANDSAT 9               
1 49260U 21088A   26043.14990483  .00000460  00000+0  11201-3 0  9990
2 49260  98.1993 115.3409 0001276  93.1165 267.0180 14.57120701232791
